{
  "type": "FeatureCollection",
  "features": [
    {
      "type": "Feature",
      "properties": {
        "norad_id": 36744,
        "name": "COMS 1",
        "group": "weather",
        "lat": -2.2433530304602347,
        "lon": -71.09405858232257,
        "alt_km": 35781.90167570797,
        "timestamp": "2025-12-07T05:38:09.551008+00:00",
        "meta_object_name": "COMS 1",
        "meta_object_id": "2010-032A",
        "meta_epoch": "2025-12-06T12:33:48.411072",
        "meta_mean_motion": 1.00271559,
        "meta_eccentricity": 0.00011837,
        "meta_inclination": 4.3257,
        "meta_ra_of_asc_node": 78.0667,
        "meta_arg_of_pericenter": 188.9536,
        "meta_mean_anomaly": 125.1658,
        "meta_ephemeris_type": 0,
        "meta_classification_type": "U",
        "meta_norad_cat_id": 36744,
        "meta_element_set_no": 999,
        "meta_rev_at_epoch": 4915,
        "meta_bstar": 0,
        "meta_mean_motion_dot": -3.39e-06,
        "meta_mean_motion_ddot": 0,
        "tle_line1": "1 36744U 10032A   25340.52347698 -.00000339  00000+0  00000+0 0  9992",
        "tle_line2": "2 36744   4.3257  78.0667 0001183 188.9536 125.1658  1.00271559 49151"
      },
      "geometry": {
        "type": "Point",
        "coordinates": [
          -71.09405858232257,
          -2.2433530304602347
        ]
      }
    },
    {
      "type": "Feature",
      "properties": {
        "norad_id": 37214,
        "name": "FENGYUN 3B",
        "group": "weather",
        "lat": 80.5756793093807,
        "lon": -86.28592206620306,
        "alt_km": 832.6185531251285,
        "timestamp": "2025-12-07T05:38:09.551020+00:00",
        "meta_object_name": "FENGYUN 3B",
        "meta_object_id": "2010-059A",
        "meta_epoch": "2025-12-06T16:07:43.895712",
        "meta_mean_motion": 14.14787254,
        "meta_eccentricity": 0.00222944,
        "meta_inclination": 98.9918,
        "meta_ra_of_asc_node": 20.6068,
        "meta_arg_of_pericenter": 14.9112,
        "meta_mean_anomaly": 92.7854,
        "meta_ephemeris_type": 0,
        "meta_classification_type": "U",
        "meta_norad_cat_id": 37214,
        "meta_element_set_no": 999,
        "meta_rev_at_epoch": 78020,
        "meta_bstar": 0.00013154779,
        "meta_mean_motion_dot": 2.09e-06,
        "meta_mean_motion_ddot": 0,
        "tle_line1": "1 37214U 10059A   25340.67203583  .00000209  00000+0  13155-3 0  9998",
        "tle_line2": "2 37214  98.9918  20.6068 0022294  14.9112  92.7854 14.14787254780207"
      },
      "geometry": {
        "type": "Point",
        "coordinates": [
          -86.28592206620306,
          80.5756793093807
        ]
      }
    },
    {
      "type": "Feature",
      "properties": {
        "norad_id": 37849,
        "name": "SUOMI NPP",
        "group": "weather",
        "lat": -19.84196388654596,
        "lon": 95.43046271537341,
        "alt_km": 831.6218284002653,
        "timestamp": "2025-12-07T05:38:09.551031+00:00",
        "meta_object_name": "SUOMI NPP",
        "meta_object_id": "2011-061A",
        "meta_epoch": "2025-12-06T15:09:49.132224",
        "meta_mean_motion": 14.19511541,
        "meta_eccentricity": 0.00020303,
        "meta_inclination": 98.7764,
        "meta_ra_of_asc_node": 278.0287,
        "meta_arg_of_pericenter": 130.9387,
        "meta_mean_anomaly": 229.1965,
        "meta_ephemeris_type": 0,
        "meta_classification_type": "U",
        "meta_norad_cat_id": 37849,
        "meta_element_set_no": 999,
        "meta_rev_at_epoch": 73112,
        "meta_bstar": 0.000122142,
        "meta_mean_motion_dot": 2.13e-06,
        "meta_mean_motion_ddot": 0,
        "tle_line1": "1 37849U 11061A   25340.63181866  .00000213  00000+0  12214-3 0  9991",
        "tle_line2": "2 37849  98.7764 278.0287 0002030 130.9387 229.1965 14.19511541731124"
      },
      "geometry": {
        "type": "Point",
        "coordinates": [
          95.43046271537341,
          -19.84196388654596
        ]
      }
    },
    {
      "type": "Feature",
      "properties": {
        "norad_id": 38552,
        "name": "METEOSAT-10 (MSG-3)",
        "group": "weather",
        "lat": 4.163285812530353,
        "lon": 160.94104618631448,
        "alt_km": 35787.45907628659,
        "timestamp": "2025-12-07T05:38:09.551043+00:00",
        "meta_object_name": "METEOSAT-10 (MSG-3)",
        "meta_object_id": "2012-035B",
        "meta_epoch": "2025-12-06T01:40:55.382880",
        "meta_mean_motion": 1.0027296,
        "meta_eccentricity": 8.777e-05,
        "meta_inclination": 4.2125,
        "meta_ra_of_asc_node": 61.7338,
        "meta_arg_of_pericenter": 227.7911,
        "meta_mean_anomaly": 170.9393,
        "meta_ephemeris_type": 0,
        "meta_classification_type": "U",
        "meta_norad_cat_id": 38552,
        "meta_element_set_no": 999,
        "meta_rev_at_epoch": 4892,
        "meta_bstar": 0,
        "meta_mean_motion_dot": 0,
        "meta_mean_motion_ddot": 0,
        "tle_line1": "1 38552U 12035B   25340.07008545  .00000000  00000+0  00000+0 0  9995",
        "tle_line2": "2 38552   4.2125  61.7338 0000877 227.7911 170.9393  1.00272960 48920"
      },
      "geometry": {
        "type": "Point",
        "coordinates": [
          160.94104618631448,
          4.163285812530353
        ]
      }
    },
    {
      "type": "Feature",
      "properties": {
        "norad_id": 38771,
        "name": "METOP-B",
        "group": "weather",
        "lat": 14.443832886925247,
        "lon": 29.03149211006498,
        "alt_km": 822.9472927122106,
        "timestamp": "2025-12-07T05:38:09.551054+00:00",
        "meta_object_name": "METOP-B",
        "meta_object_id": "2012-049A",
        "meta_epoch": "2025-12-06T14:21:45.292032",
        "meta_mean_motion": 14.21404997,
        "meta_eccentricity": 0.00026435,
        "meta_inclination": 98.6808,
        "meta_ra_of_asc_node": 30.6611,
        "meta_arg_of_pericenter": 157.7358,
        "meta_mean_anomaly": 202.3935,
        "meta_ephemeris_type": 0,
        "meta_classification_type": "U",
        "meta_norad_cat_id": 38771,
        "meta_element_set_no": 999,
        "meta_rev_at_epoch": 68590,
        "meta_bstar": 0.00015710096,
        "meta_mean_motion_dot": 3e-06,
        "meta_mean_motion_ddot": 0,
        "tle_line1": "1 38771U 12049A   25340.59844088  .00000300  00000+0  15710-3 0  9991",
        "tle_line2": "2 38771  98.6808  30.6611 0002643 157.7358 202.3935 14.21404997685908"
      },
      "geometry": {
        "type": "Point",
        "coordinates": [
          29.03149211006498,
          14.443832886925247
        ]
      }
    },
    {
      "type": "Feature",
      "properties": {
        "norad_id": 39216,
        "name": "INSAT-3D",
        "group": "weather",
        "lat": -0.6304668230072218,
        "lon": -69.65531917320787,
        "alt_km": 35780.858998026386,
        "timestamp": "2025-12-07T05:38:09.551066+00:00",
        "meta_object_name": "INSAT-3D",
        "meta_object_id": "2013-038B",
        "meta_epoch": "2025-12-06T13:34:38.675424",
        "meta_mean_motion": 1.00272349,
        "meta_eccentricity": 0.00017696,
        "meta_inclination": 1.4282,
        "meta_ra_of_asc_node": 85.059,
        "meta_arg_of_pericenter": 159.5651,
        "meta_mean_anomaly": 164.1799,
        "meta_ephemeris_type": 0,
        "meta_classification_type": "U",
        "meta_norad_cat_id": 39216,
        "meta_element_set_no": 999,
        "meta_rev_at_epoch": 4514,
        "meta_bstar": 0,
        "meta_mean_motion_dot": -3.32e-06,
        "meta_mean_motion_ddot": 0,
        "tle_line1": "1 39216U 13038B   25340.56572541 -.00000332  00000+0  00000+0 0  9992",
        "tle_line2": "2 39216   1.4282  85.0590 0001769 159.5651 164.1799  1.00272349 45141"
      },
      "geometry": {
        "type": "Point",
        "coordinates": [
          -69.65531917320787,
          -0.6304668230072218
        ]
      }
    },
    {
      "type": "Feature",
      "properties": {
        "norad_id": 39260,
        "name": "FENGYUN 3C",
        "group": "weather",
        "lat": 14.664872540296237,
        "lon": -43.053194629348035,
        "alt_km": 850.38785774598,
        "timestamp": "2025-12-07T05:38:09.551077+00:00",
        "meta_object_name": "FENGYUN 3C",
        "meta_object_id": "2013-052A",
        "meta_epoch": "2025-12-06T14:17:59.206560",
        "meta_mean_motion": 14.15693489,
        "meta_eccentricity": 0.00139631,
        "meta_inclination": 98.4757,
        "meta_ra_of_asc_node": 318.5754,
        "meta_arg_of_pericenter": 214.3663,
        "meta_mean_anomaly": 145.661,
        "meta_ephemeris_type": 0,
        "meta_classification_type": "U",
        "meta_norad_cat_id": 39260,
        "meta_element_set_no": 999,
        "meta_rev_at_epoch": 63131,
        "meta_bstar": 0.0001297778,
        "meta_mean_motion_dot": 2.13e-06,
        "meta_mean_motion_ddot": 0,
        "tle_line1": "1 39260U 13052A   25340.59582415  .00000213  00000+0  12978-3 0  9999",
        "tle_line2": "2 39260  98.4757 318.5754 0013963 214.3663 145.6610 14.15693489631319"
      },
      "geometry": {
        "type": "Point",
        "coordinates": [
          -43.053194629348035,
          14.664872540296237
        ]
      }
    }
  ]
}